{
  "type": "FeatureCollection",
  "features": [
    {
      "type": "Feature",
      "properties": {
        "norad_id": 32376,
        "name": "COSMO-SKYMED 2",
        "group": "resource",
        "lat": -39.08935160964357,
        "lon": 179.99343043689206,
        "alt_km": 629.5354128016425,
        "timestamp": "2025-12-18T07:01:54.244265+00:00",
        "meta_object_name": "COSMO-SKYMED 2",
        "meta_object_id": "2007-059A",
        "meta_epoch": "2025-12-17T23:06:30.528576",
        "meta_mean_motion": 14.82148875,
        "meta_eccentricity": 0.00013587,
        "meta_inclination": 97.8803,
        "meta_ra_of_asc_node": 173.208,
        "meta_arg_of_pericenter": 82.788,
        "meta_mean_anomaly": 277.3488,
        "meta_ephemeris_type": 0,
        "meta_classification_type": "U",
        "meta_norad_cat_id": 32376,
        "meta_element_set_no": 999,
        "meta_rev_at_epoch": 97515,
        "meta_bstar": 6.2285251e-05,
        "meta_mean_motion_dot": 4.44e-06,
        "meta_mean_motion_ddot": 0,
        "tle_line1": "1 32376U 07059A   25351.96285334  .00000444  00000+0  62285-4 0  9996",
        "tle_line2": "2 32376  97.8803 173.2080 0001358  82.7880 277.3488 14.82148875975153"
      },
      "geometry": {
        "type": "Point",
        "coordinates": [
          179.99343043689206,
          -39.08935160964357
        ]
      }
    },
    {
      "type": "Feature",
      "properties": {
        "norad_id": 32382,
        "name": "RADARSAT-2",
        "group": "resource",
        "lat": -51.005806536260444,
        "lon": 7.549394078717756,
        "alt_km": 799.237385626081,
        "timestamp": "2025-12-18T07:01:54.244288+00:00",
        "meta_object_name": "RADARSAT-2",
        "meta_object_id": "2007-061A",
        "meta_epoch": "2025-12-17T22:52:37.680960",
        "meta_mean_motion": 14.29982974,
        "meta_eccentricity": 0.00011051,
        "meta_inclination": 98.5795,
        "meta_ra_of_asc_node": 356.4679,
        "meta_arg_of_pericenter": 83.5066,
        "meta_mean_anomaly": 276.6242,
        "meta_ephemeris_type": 0,
        "meta_classification_type": "U",
        "meta_norad_cat_id": 32382,
        "meta_element_set_no": 999,
        "meta_rev_at_epoch": 94005,
        "meta_bstar": 4.73954e-07,
        "meta_mean_motion_dot": -4.2e-07,
        "meta_mean_motion_ddot": 0,
        "tle_line1": "1 32382U 07061A   25351.95321390 -.00000042  00000+0  47395-6 0  9990",
        "tle_line2": "2 32382  98.5795 356.4679 0001105  83.5066 276.6242 14.29982974940050"
      },
      "geometry": {
        "type": "Point",
        "coordinates": [
          7.549394078717756,
          -51.005806536260444
        ]
      }
    },
    {
      "type": "Feature",
      "properties": {
        "norad_id": 32783,
        "name": "CARTOSAT-2A",
        "group": "resource",
        "lat": 35.75347951154843,
        "lon": 36.28465257680295,
        "alt_km": 624.9914748480342,
        "timestamp": "2025-12-18T07:01:54.244307+00:00",
        "meta_object_name": "CARTOSAT-2A",
        "meta_object_id": "2008-021A",
        "meta_epoch": "2025-12-17T22:45:01.238400",
        "meta_mean_motion": 14.78945231,
        "meta_eccentricity": 0.00115149,
        "meta_inclination": 97.793,
        "meta_ra_of_asc_node": 41.6091,
        "meta_arg_of_pericenter": 347.8122,
        "meta_mean_anomaly": 12.281,
        "meta_ephemeris_type": 0,
        "meta_classification_type": "U",
        "meta_norad_cat_id": 32783,
        "meta_element_set_no": 999,
        "meta_rev_at_epoch": 95201,
        "meta_bstar": 4.8576885e-05,
        "meta_mean_motion_dot": 3.08e-06,
        "meta_mean_motion_ddot": 0,
        "tle_line1": "1 32783U 08021A   25351.94793100  .00000308  00000+0  48577-4 0  9998",
        "tle_line2": "2 32783  97.7930  41.6091 0011514 347.8122  12.2810 14.78945231952015"
      },
      "geometry": {
        "type": "Point",
        "coordinates": [
          36.28465257680295,
          35.75347951154843
        ]
      }
    },
    {
      "type": "Feature",
      "properties": {
        "norad_id": 33320,
        "name": "HUANJING 1A (HJ-1A)",
        "group": "resource",
        "lat": -9.61145364153798,
        "lon": -18.33528740457933,
        "alt_km": 610.3295144290059,
        "timestamp": "2025-12-18T07:01:54.244318+00:00",
        "meta_object_name": "HUANJING 1A (HJ-1A)",
        "meta_object_id": "2008-041A",
        "meta_epoch": "2025-12-17T22:58:50.776896",
        "meta_mean_motion": 14.83411615,
        "meta_eccentricity": 0.00198447,
        "meta_inclination": 97.6537,
        "meta_ra_of_asc_node": 340.0384,
        "meta_arg_of_pericenter": 17.9738,
        "meta_mean_anomaly": 342.2174,
        "meta_ephemeris_type": 0,
        "meta_classification_type": "U",
        "meta_norad_cat_id": 33320,
        "meta_element_set_no": 999,
        "meta_rev_at_epoch": 93153,
        "meta_bstar": 0.00014641567,
        "meta_mean_motion_dot": 1.154e-05,
        "meta_mean_motion_ddot": 0,
        "tle_line1": "1 33320U 08041A   25351.95753214  .00001154  00000+0  14642-3 0  9996",
        "tle_line2": "2 33320  97.6537 340.0384 0019844  17.9738 342.2174 14.83411615931531"
      },
      "geometry": {
        "type": "Point",
        "coordinates": [
          -18.33528740457933,
          -9.61145364153798
        ]
      }
    },
    {
      "type": "Feature",
      "properties": {
        "norad_id": 33321,
        "name": "HUANJING 1B (HJ-1B)",
        "group": "resource",
        "lat": -20.3261938406038,
        "lon": 161.192479659592,
        "alt_km": 646.7389338635849,
        "timestamp": "2025-12-18T07:01:54.244329+00:00",
        "meta_object_name": "HUANJING 1B (HJ-1B)",
        "meta_object_id": "2008-041B",
        "meta_epoch": "2025-12-17T23:39:20.024352",
        "meta_mean_motion": 14.82833358,
        "meta_eccentricity": 0.00381048,
        "meta_inclination": 97.6396,
        "meta_ra_of_asc_node": 343.7487,
        "meta_arg_of_pericenter": 59.0167,
        "meta_mean_anomaly": 301.4782,
        "meta_ephemeris_type": 0,
        "meta_classification_type": "U",
        "meta_norad_cat_id": 33321,
        "meta_element_set_no": 999,
        "meta_rev_at_epoch": 93155,
        "meta_bstar": 7.3055974e-05,
        "meta_mean_motion_dot": 5.47e-06,
        "meta_mean_motion_ddot": 0,
        "tle_line1": "1 33321U 08041B   25351.98564843  .00000547  00000+0  73056-4 0  9998",
        "tle_line2": "2 33321  97.6396 343.7487 0038104  59.0167 301.4782 14.82833358931557"
      },
      "geometry": {
        "type": "Point",
        "coordinates": [
          161.192479659592,
          -20.3261938406038
        ]
      }
    },
    {
      "type": "Feature",
      "properties": {
        "norad_id": 33331,
        "name": "GEOEYE 1",
        "group": "resource",
        "lat": -5.667494400271434,
        "lon": -117.30841717960267,
        "alt_km": 681.2453357682016,
        "timestamp": "2025-12-18T07:01:54.244339+00:00",
        "meta_object_name": "GEOEYE 1",
        "meta_object_id": "2008-042A",
        "meta_epoch": "2025-12-17T20:20:58.281792",
        "meta_mean_motion": 14.64707321,
        "meta_eccentricity": 0.00027718,
        "meta_inclination": 98.1248,
        "meta_ra_of_asc_node": 63.0645,
        "meta_arg_of_pericenter": 263.096,
        "meta_mean_anomaly": 96.9928,
        "meta_ephemeris_type": 0,
        "meta_classification_type": "U",
        "meta_norad_cat_id": 33331,
        "meta_element_set_no": 999,
        "meta_rev_at_epoch": 92360,
        "meta_bstar": 0.00010450993,
        "meta_mean_motion_dot": 5.09e-06,
        "meta_mean_motion_ddot": 0,
        "tle_line1": "1 33331U 08042A   25351.84789678  .00000509  00000+0  10451-3 0  9997",
        "tle_line2": "2 33331  98.1248  63.0645 0002771 263.0960  96.9928 14.64707321923602"
      },
      "geometry": {
        "type": "Point",
        "coordinates": [
          -117.30841717960267,
          -5.667494400271434
        ]
      }
    },
    {
      "type": "Feature",
      "properties": {
        "norad_id": 33396,
        "name": "THEOS",
        "group": "resource",
        "lat": -50.44855650811973,
        "lon": -140.32312808769206,
        "alt_km": 832.535590120704,
        "timestamp": "2025-12-18T07:01:54.244350+00:00",
        "meta_object_name": "THEOS",
        "meta_object_id": "2008-049A",
        "meta_epoch": "2025-12-17T23:10:57.532224",
        "meta_mean_motion": 14.20096104,
        "meta_eccentricity": 0.0001181,
        "meta_inclination": 98.5868,
        "meta_ra_of_asc_node": 49.9017,
        "meta_arg_of_pericenter": 94.0662,
        "meta_mean_anomaly": 266.065,
        "meta_ephemeris_type": 0,
        "meta_classification_type": "U",
        "meta_norad_cat_id": 33396,
        "meta_element_set_no": 999,
        "meta_rev_at_epoch": 89224,
        "meta_bstar": -0.00011785625,
        "meta_mean_motion_dot": -2.94e-06,
        "meta_mean_motion_ddot": 0,
        "tle_line1": "1 33396U 08049A   25351.96594366 -.00000294  00000+0 -11786-3 0  9991",
        "tle_line2": "2 33396  98.5868  49.9017 0001181  94.0662 266.0650 14.20096104892245"
      },
      "geometry": {
        "type": "Point",
        "coordinates": [
          -140.32312808769206,
          -50.44855650811973
        ]
      }
    }
  ]
}